GLOBALSTAR M045         
1 25676U 99019A   26013.41346584 -.00000098  00000+0 -35147-4 0  9993
2 25676  51.9977  66.0741 0000364 162.0379 211.8946 12.27070882219203
GLOBALSTAR M019         
1 25677U 99019B   26013.26476530 -.00000156  00000+0 -68490-3 0  9993
2 25677  51.9852 211.6500 0002193  54.2101 117.0998 12.13881426210657
GLOBALSTAR M044         
1 25678U 99019C   26013.23450814 -.00000056  00000+0  39213-3 0  9997
2 25678  51.9934 189.3688 0007245  85.5373  85.9663 11.90263998196330
GLOBALSTAR M042         
1 25679U 99019D   26013.59145005 -.00000050  00000+0  39682-3 0  9994
2 25679  51.9990 176.9706 0003280  35.0664  40.7071 12.22096053210986
GLOBALSTAR M025         
1 25770U 99031A   26013.35079683 -.00000058  00000+0  29957-3 0  9994
2 25770  51.9840  32.4099 0002364 133.9282 239.4334 11.22560524505310
GLOBALSTAR M049         
1 25771U 99031B   26013.49160047 -.00000102  00000+0 -12672-2 0  9991
2 25771  51.9885  77.4150 0002585  24.6029 335.4890 11.12124112140820
GLOBALSTAR M047         
1 25772U 99031C   26013.40939060 -.00000078  00000+0 -24134-3 0  9991
2 25772  51.9845  54.4864 0016229 262.6325  97.2636 11.31931902494914
GLOBALSTAR M052         
1 25773U 99031D   26013.43113568 -.00000041  00000+0  84946-3 0  9998
2 25773  51.9829 183.2698 0003381 139.3014 232.6507 11.15063615501968
